start=new Date('2023-04-14T00:00:00.000Z').valueOf();
sats=[{"EPHEMERIS_TYPE":"0","ARG_OF_PERICENTER":"84.9275","MEAN_MOTION_DDOT":"0.0000000000000","TLE_LINE1":"1 52636U 22052AQ  23103.86981705  .00003690  00000-0  24975-3 0  9994","RCS_SIZE":"LARGE","MEAN_MOTION":"15.08845495","PERIAPSIS":"539.213","CENTER_NAME":"EARTH","COUNTRY_CODE":"US","ELEMENT_SET_NO":"999","RA_OF_ASC_NODE":"351.3257","BSTAR":"0.00024975000000","MEAN_ELEMENT_THEORY":"SGP4","PERIOD":"95.437","MEAN_MOTION_DOT":"0.00003690","INCLINATION":"53.2177","OBJECT_TYPE":"PAYLOAD","FILE":"3886958","OBJECT_NAME":"STARLINK-3967","CLASSIFICATION_TYPE":"U","LAUNCH_DATE":"2022-05-14","SITE":"AFETR","NORAD_CAT_ID":"52636","EPOCH":"2023-04-13T20:52:32.193120","ECCENTRICITY":"0.00007450","REF_FRAME":"TEME","APOAPSIS":"540.244","REV_AT_EPOCH":"5122","GP_ID":"230026979","SEMIMAJOR_AXIS":"6917.864","MEAN_ANOMALY":"275.1802","TIME_SYSTEM":"UTC","TLE_LINE2":"2 52636  53.2177 351.3257 0000745  84.9275 275.1802 15.08845495 51220","OBJECT_ID":"2022-052AQ","DECAY_DATE":null},{"APOAPSIS":"540.290","REF_FRAME":"TEME","ECCENTRICITY":"0.00007840","DECAY_DATE":null,"OBJECT_ID":"2022-052AR","TLE_LINE2":"2 52637  53.2177 345.0212 0000784  77.8443 282.2637 15.08839386 51668","TIME_SYSTEM":"UTC","MEAN_ANOMALY":"282.2637","SEMIMAJOR_AXIS":"6917.882","REV_AT_EPOCH":"5166","GP_ID":"230014048","OBJECT_NAME":"STARLINK-3961","EPOCH":"2023-04-13T01:06:50.606784","NORAD_CAT_ID":"52637","SITE":"AFETR","LAUNCH_DATE":"2022-05-14","CLASSIFICATION_TYPE":"U","MEAN_ELEMENT_THEORY":"SGP4","BSTAR":"0.00004932800000","RA_OF_ASC_NODE":"345.0212","ELEMENT_SET_NO":"999","COUNTRY_CODE":"US","CENTER_NAME":"EARTH","FILE":"3886564","OBJECT_TYPE":"PAYLOAD","INCLINATION":"53.2177","MEAN_MOTION_DOT":"0.00000497","PERIOD":"95.438","MEAN_MOTION_DDOT":"0.0000000000000","ARG_OF_PERICENTER":"77.8443","EPHEMERIS_TYPE":"0","PERIAPSIS":"539.205","TLE_LINE1":"1 52637U 22052AR  23103.04641906  .00000497  00000-0  49328-4 0  9993","MEAN_MOTION":"15.08839386","RCS_SIZE":"LARGE"},{"OBJECT_NAME":"STARLINK-3941","NORAD_CAT_ID":"52638","EPOCH":"2023-04-13T03:17:59.822880","CLASSIFICATION_TYPE":"U","SITE":"AFETR","LAUNCH_DATE":"2022-05-14","APOAPSIS":"540.432","ECCENTRICITY":"0.00010220","REF_FRAME":"TEME","OBJECT_ID":"2022-052AS","TLE_LINE2":"2 52638  53.2172 354.6113 0001022  99.6584 260.4524 15.08846766 51544","DECAY_DATE":null,"REV_AT_EPOCH":"5154","GP_ID":"230013798","SEMIMAJOR_AXIS":"6917.860","MEAN_ANOMALY":"260.4524","TIME_SYSTEM":"UTC","ARG_OF_PERICENTER":"99.6584","EPHEMERIS_TYPE":"0","MEAN_MOTION_DDOT":"0.0000000000000","TLE_LINE1":"1 52638U 22052AS  23103.13749795  .00001953  00000-0  14071-3 0  9993","RCS_SIZE":"LARGE","MEAN_MOTION":"15.08846766","PERIAPSIS":"539.018","BSTAR":"0.00014071000000","MEAN_ELEMENT_THEORY":"SGP4","CENTER_NAME":"EARTH","COUNTRY_CODE":"US","ELEMENT_SET_NO":"999","RA_OF_ASC_NODE":"354.6113","OBJECT_TYPE":"PAYLOAD","FILE":"3886564","PERIOD":"95.437","MEAN_MOTION_DOT":"0.00001953","INCLINATION":"53.2172"},{"RCS_SIZE":"LARGE","TLE_LINE1":"1 52639U 22052AT  23103.10162159  .00009466  00000-0  61197-3 0  9992","MEAN_MOTION":"15.08842331","PERIAPSIS":"539.024","EPHEMERIS_TYPE":"0","ARG_OF_PERICENTER":"83.7301","MEAN_MOTION_DDOT":"0.0000000000000","OBJECT_TYPE":"PAYLOAD","FILE":"3886608","PERIOD":"95.437","MEAN_MOTION_DOT":"0.00009466","INCLINATION":"53.2160","BSTAR":"0.00061197000000","MEAN_ELEMENT_THEORY":"SGP4","CENTER_NAME":"EARTH","COUNTRY_CODE":"US","ELEMENT_SET_NO":"999","RA_OF_ASC_NODE":"344.7717","NORAD_CAT_ID":"52639","EPOCH":"2023-04-13T02:26:20.105376","CLASSIFICATION_TYPE":"U","LAUNCH_DATE":"2022-05-14","SITE":"AFETR","OBJECT_NAME":"STARLINK-3968","TLE_LINE2":"2 52639  53.2160 344.7717 0001033  83.7301 276.3809 15.08842331 51248","OBJECT_ID":"2022-052AT","DECAY_DATE":null,"GP_ID":"230018495","REV_AT_EPOCH":"5124","SEMIMAJOR_AXIS":"6917.873","MEAN_ANOMALY":"276.3809","TIME_SYSTEM":"UTC","APOAPSIS":"540.453","ECCENTRICITY":"0.00010330","REF_FRAME":"TEME"},{"TLE_LINE1":"1 52640U 22052AU  23103.84866654  .00000732  00000-0  64056-4 0  9991","RCS_SIZE":"LARGE","MEAN_MOTION":"15.08839784","PERIAPSIS":"538.988","MEAN_MOTION_DDOT":"0.0000000000000","ARG_OF_PERICENTER":"88.9324","EPHEMERIS_TYPE":"0","MEAN_MOTION_DOT":"0.00000732","INCLINATION":"53.2161","PERIOD":"95.438","OBJECT_TYPE":"PAYLOAD","FILE":"3886958","ELEMENT_SET_NO":"999","RA_OF_ASC_NODE":"341.4523","CENTER_NAME":"EARTH","COUNTRY_CODE":"US","BSTAR":"0.00006405600000","MEAN_ELEMENT_THEORY":"SGP4","SITE":"AFETR","LAUNCH_DATE":"2022-05-14","CLASSIFICATION_TYPE":"U","EPOCH":"2023-04-13T20:22:04.789056","NORAD_CAT_ID":"52640","OBJECT_NAME":"STARLINK-3977","MEAN_ANOMALY":"271.1794","TIME_SYSTEM":"UTC","REV_AT_EPOCH":"5135","GP_ID":"230026986","SEMIMAJOR_AXIS":"6917.881","DECAY_DATE":null,"OBJECT_ID":"2022-052AU","TLE_LINE2":"2 52640  53.2161 341.4523 0001096  88.9324 271.1794 15.08839784 51357","REF_FRAME":"TEME","ECCENTRICITY":"0.00010960","APOAPSIS":"540.504"},{"ARG_OF_PERICENTER":"98.4223","EPHEMERIS_TYPE":"0","MEAN_MOTION_DDOT":"0.0000000000000","PERIAPSIS":"539.100","MEAN_MOTION":"15.08843035","TLE_LINE1":"1 52641U 22052AV  23103.76034034  .00002791  00000-0  19337-3 0  9990","RCS_SIZE":"LARGE","MEAN_ELEMENT_THEORY":"SGP4","BSTAR":"0.00019337000000","COUNTRY_CODE":"US","CENTER_NAME":"EARTH","RA_OF_ASC_NODE":"341.8213","ELEMENT_SET_NO":"999","FILE":"3886952","OBJECT_TYPE":"PAYLOAD","PERIOD":"95.437","INCLINATION":"53.2166","MEAN_MOTION_DOT":"0.00002791","OBJECT_NAME":"STARLINK-3991","NORAD_CAT_ID":"52641","EPOCH":"2023-04-13T18:14:53.405376","CLASSIFICATION_TYPE":"U","LAUNCH_DATE":"2022-05-14","SITE":"AFETR","APOAPSIS":"540.372","ECCENTRICITY":"0.00009190","REF_FRAME":"TEME","OBJECT_ID":"2022-052AV","TLE_LINE2":"2 52641  53.2166 341.8213 0000919  98.4223 261.6873 15.08843035 51345","DECAY_DATE":null,"SEMIMAJOR_AXIS":"6917.871","REV_AT_EPOCH":"5134","GP_ID":"230026889","TIME_SYSTEM":"UTC","MEAN_ANOMALY":"261.6873"},{"MEAN_ELEMENT_THEORY":"SGP4","BSTAR":"0.00013018000000","RA_OF_ASC_NODE":"345.0420","ELEMENT_SET_NO":"999","COUNTRY_CODE":"US","CENTER_NAME":"EARTH","FILE":"3886564","OBJECT_TYPE":"PAYLOAD","INCLINATION":"53.2162","MEAN_MOTION_DOT":"0.00001785","PERIOD":"95.437","MEAN_MOTION_DDOT":"0.0000000000000","EPHEMERIS_TYPE":"0","ARG_OF_PERICENTER":"91.0784","PERIAPSIS":"538.897","RCS_SIZE":"LARGE","TLE_LINE1":"1 52642U 22052AW  23103.04273986  .00001785  00000-0  13018-3 0  9995","MEAN_MOTION":"15.08845610","APOAPSIS":"540.559","REF_FRAME":"TEME","ECCENTRICITY":"0.00012010","DECAY_DATE":null,"OBJECT_ID":"2022-052AW","TLE_LINE2":"2 52642  53.2162 345.0420 0001201  91.0784 269.0346 15.08845610 50857","TIME_SYSTEM":"UTC","MEAN_ANOMALY":"269.0346","SEMIMAJOR_AXIS":"6917.863","GP_ID":"230014299","REV_AT_EPOCH":"5085","OBJECT_NAME":"STARLINK-3971","EPOCH":"2023-04-13T01:01:32.723904","NORAD_CAT_ID":"52642","SITE":"AFETR","LAUNCH_DATE":"2022-05-14","CLASSIFICATION_TYPE":"U"},{"SEMIMAJOR_AXIS":"6917.883","GP_ID":"230014550","REV_AT_EPOCH":"5084","TIME_SYSTEM":"UTC","MEAN_ANOMALY":"277.3321","TLE_LINE2":"2 52643  53.2179 345.4167 0001481  82.7840 277.3321 15.08839047 50849","OBJECT_ID":"2022-052AX","DECAY_DATE":null,"ECCENTRICITY":"0.00014810","REF_FRAME":"TEME","APOAPSIS":"540.773","CLASSIFICATION_TYPE":"U","LAUNCH_DATE":"2022-05-14","SITE":"AFETR","NORAD_CAT_ID":"52643","EPOCH":"2023-04-12T22:50:26.629440","OBJECT_NAME":"STARLINK-3963","PERIOD":"95.438","INCLINATION":"53.2179","MEAN_MOTION_DOT":"0.00004859","FILE":"3886564","OBJECT_TYPE":"PAYLOAD","COUNTRY_CODE":"US","CENTER_NAME":"EARTH","RA_OF_ASC_NODE":"345.4167","ELEMENT_SET_NO":"999","MEAN_ELEMENT_THEORY":"SGP4","BSTAR":"0.00032320000000","PERIAPSIS":"538.724","RCS_SIZE":"LARGE","TLE_LINE1":"1 52643U 22052AX  23102.95169710  .00004859  00000-0  32320-3 0  9996","MEAN_MOTION":"15.08839047","EPHEMERIS_TYPE":"0","ARG_OF_PERICENTER":"82.7840","MEAN_MOTION_DDOT":"0.0000000000000"},{"DECAY_DATE":null,"TLE_LINE2":"2 52644  53.2171 344.7561 0001212  95.0340 265.0791 15.08838702 50860","OBJECT_ID":"2022-052AY","TIME_SYSTEM":"UTC","MEAN_ANOMALY":"265.0791","SEMIMAJOR_AXIS":"6917.884","REV_AT_EPOCH":"5086","GP_ID":"230015298","APOAPSIS":"540.588","REF_FRAME":"TEME","ECCENTRICITY":"0.00012120","EPOCH":"2023-04-13T02:31:38.091072","NORAD_CAT_ID":"52644","SITE":"AFETR","LAUNCH_DATE":"2022-05-14","CLASSIFICATION_TYPE":"U","OBJECT_NAME":"STARLINK-3985","FILE":"3886564","OBJECT_TYPE":"PAYLOAD","INCLINATION":"53.2171","MEAN_MOTION_DOT":"0.00002500","PERIOD":"95.438","MEAN_ELEMENT_THEORY":"SGP4","BSTAR":"0.00017514000000","RA_OF_ASC_NODE":"344.7561","ELEMENT_SET_NO":"999","COUNTRY_CODE":"US","CENTER_NAME":"EARTH","PERIAPSIS":"538.911","MEAN_MOTION":"15.08838702","TLE_LINE1":"1 52644U 22052AY  23103.10530198  .00002500  00000-0  17514-3 0  9996","RCS_SIZE":"LARGE","MEAN_MOTION_DDOT":"0.0000000000000","EPHEMERIS_TYPE":"0","ARG_OF_PERICENTER":"95.0340"},{"NORAD_CAT_ID":"52645","EPOCH":"2023-04-12T23:04:58.611072","CLASSIFICATION_TYPE":"U","LAUNCH_DATE":"2022-05-14","SITE":"AFETR","OBJECT_NAME":"STARLINK-3973","OBJECT_ID":"2022-052AZ","TLE_LINE2":"2 52645  53.2153 345.5032 0001259 109.4879 250.6250 15.08840823 50846","DECAY_DATE":null,"SEMIMAJOR_AXIS":"6917.878","GP_ID":"230014049","REV_AT_EPOCH":"5084","TIME_SYSTEM":"UTC","MEAN_ANOMALY":"250.6250","APOAPSIS":"540.614","ECCENTRICITY":"0.00012590","REF_FRAME":"TEME","PERIAPSIS":"538.872","TLE_LINE1":"1 52645U 22052AZ  23102.96178948  .00001731  00000-0  12680-3 0  9995","MEAN_MOTION":"15.08840823","RCS_SIZE":"LARGE","ARG_OF_PERICENTER":"109.4879","EPHEMERIS_TYPE":"0","MEAN_MOTION_DDOT":"0.0000000000000","FILE":"3886564","OBJECT_TYPE":"PAYLOAD","PERIOD":"95.438","INCLINATION":"53.2153","MEAN_MOTION_DOT":"0.00001731","MEAN_ELEMENT_THEORY":"SGP4","BSTAR":"0.00012680000000","COUNTRY_CODE":"US","CENTER_NAME":"EARTH","RA_OF_ASC_NODE":"345.5032","ELEMENT_SET_NO":"999"}];
